{"type": "FeatureCollection", "features": [{"type": "Feature", "properties": {"kind": "analysis_area"}, "geometry": {"type": "Polygon", "coordinates": [[[100.0, 0.0], [100.0, 70.0], [0.0, 70.0], [0.0, 0.0], [100.0, 0.0]]]}}, {"type": "Feature", "properties": {"kind": "covered_union"}, "geometry": {"type": "MultiPolygon", "coordinates": [[[[5.0, 45.0], [30.0, 45.0], [30.0, 60.0], [70.0, 60.0], [70.0, 20.0], [45.0, 20.0], [45.0, 5.0], [5.0, 5.0], [5.0, 45.0]]], [[[100.0, 65.0], [100.0, 40.0], [85.0, 40.0], [85.0, 65.0], [100.0, 65.0]]]]}}]}