{"type": "FeatureCollection", "features": [{"type": "Feature", "properties": {"kind": "fragment", "id": 0}, "geometry": {"type": "Polygon", "coordinates": [[[22.0, 10.0], [22.0, 28.0], [5.0, 28.0], [5.0, 10.0], [22.0, 10.0]]]}}, {"type": "Feature", "properties": {"kind": "fragment", "id": 1}, "geometry": {"type": "Polygon", "coordinates": [[[50.0, 12.0], [50.0, 30.0], [35.0, 30.0], [35.0, 12.0], [50.0, 12.0]]]}}, {"type": "Feature", "properties": {"kind": "fragment", "id": 2}, "geometry": {"type": "Polygon", "coordinates": [[[80.0, 15.0], [80.0, 35.0], [64.0, 35.0], [64.0, 15.0], [80.0, 15.0]]]}}, {"type": "Feature", "properties": {"kind": "fragment", "id": 3}, "geometry": {"type": "Polygon", "coordinates": [[[98.0, 50.0], [98.0, 65.0], [84.0, 65.0], [84.0, 50.0], [98.0, 50.0]]]}}, {"type": "Feature", "properties": {"kind": "candidate_link", "gap_m": 13.0}, "geometry": {"type": "LineString", "coordinates": [[22.0, 12.0], [35.0, 12.0]]}}, {"type": "Feature", "properties": {"kind": "candidate_link", "gap_m": 14.0}, "geometry": {"type": "LineString", "coordinates": [[50.0, 15.0], [64.0, 15.0]]}}, {"type": "Feature", "properties": {"kind": "candidate_link", "gap_m": 15.524174696260024}, "geometry": {"type": "LineString", "coordinates": [[80.0, 35.0], [84.0, 50.0]]}}]}