{"type": "FeatureCollection", "features": [{"type": "Feature", "properties": {"kind": "terrain"}, "geometry": {"type": "Polygon", "coordinates": [[[0.0, 0.0], [65.0, 0.0], [65.0, 25.0], [48.0, 25.0], [48.0, 52.0], [0.0, 52.0], [0.0, 0.0]]]}}, {"type": "Feature", "properties": {"kind": "feasible"}, "geometry": {"type": "Polygon", "coordinates": [[[4.0, 4.0], [4.0, 48.0], [44.0, 48.0], [44.0, 21.0], [61.0, 21.0], [61.0, 4.0], [4.0, 4.0]]]}}, {"type": "Feature", "properties": {"kind": "building", "index": 1}, "geometry": {"type": "Polygon", "coordinates": [[[16.0, 4.0], [16.0, 12.0], [4.0, 12.0], [4.0, 4.0], [16.0, 4.0]]]}}, {"type": "Feature", "properties": {"kind": "building", "index": 2}, "geometry": {"type": "Polygon", "coordinates": [[[16.0, 16.0], [16.0, 24.0], [4.0, 24.0], [4.0, 16.0], [16.0, 16.0]]]}}, {"type": "Feature", "properties": {"kind": "building", "index": 3}, "geometry": {"type": "Polygon", "coordinates": [[[16.0, 28.0], [16.0, 36.0], [4.0, 36.0], [4.0, 28.0], [16.0, 28.0]]]}}, {"type": "Feature", "properties": {"kind": "building", "index": 4}, "geometry": {"type": "Polygon", "coordinates": [[[16.0, 40.0], [16.0, 48.0], [4.0, 48.0], [4.0, 40.0], [16.0, 40.0]]]}}, {"type": "Feature", "properties": {"kind": "building", "index": 5}, "geometry": {"type": "Polygon", "coordinates": [[[32.0, 4.0], [32.0, 12.0], [20.0, 12.0], [20.0, 4.0], [32.0, 4.0]]]}}, {"type": "Feature", "properties": {"kind": "building", "index": 6}, "geometry": {"type": "Polygon", "coordinates": [[[32.0, 16.0], [32.0, 24.0], [20.0, 24.0], [20.0, 16.0], [32.0, 16.0]]]}}, {"type": "Feature", "properties": {"kind": "building", "index": 7}, "geometry": {"type": "Polygon", "coordinates": [[[32.0, 28.0], [32.0, 36.0], [20.0, 36.0], [20.0, 28.0], [32.0, 28.0]]]}}, {"type": "Feature", "properties": {"kind": "building", "index": 8}, "geometry": {"type": "Polygon", "coordinates": [[[32.0, 40.0], [32.0, 48.0], [20.0, 48.0], [20.0, 40.0], [32.0, 40.0]]]}}, {"type": "Feature", "properties": {"kind": "building", "index": 9}, "geometry": {"type": "Polygon", "coordinates": [[[48.0, 4.0], [48.0, 12.0], [36.0, 12.0], [36.0, 4.0], [48.0, 4.0]]]}}, {"type": "Feature", "properties": {"kind": "building", "index": 10}, "geometry": {"type": "Polygon", "coordinates": [[[44.0, 16.0], [44.0, 28.0], [36.0, 28.0], [36.0, 16.0], [44.0, 16.0]]]}}, {"type": "Feature", "properties": {"kind": "building", "index": 11}, "geometry": {"type": "Polygon", "coordinates": [[[44.0, 32.0], [44.0, 44.0], [36.0, 44.0], [36.0, 32.0], [44.0, 32.0]]]}}, {"type": "Feature", "properties": {"kind": "building", "index": 12}, "geometry": {"type": "Polygon", "coordinates": [[[60.0, 4.0], [60.0, 16.0], [52.0, 16.0], [52.0, 4.0], [60.0, 4.0]]]}}]}